[{"OBJECT_NAME":"IRIDIUM 125","OBJECT_ID":"2017-061K","EPOCH":"2026-03-09T21:31:26.578560","MEAN_MOTION":14.342175,"ECCENTRICITY":0.00017652,"INCLINATION":86.3918,"RA_OF_ASC_NODE":66.8822,"ARG_OF_PERICENTER":75.1905,"MEAN_ANOMALY":284.9486,"EPHEMERIS_TYPE":0,"CLASSIFICATION_TYPE":"U","NORAD_CAT_ID":42964,"ELEMENT_SET_NO":999,"REV_AT_EPOCH":44062,"BSTAR":-1.144702e-6,"MEAN_MOTION_DOT":1.7e-7,"MEAN_MOTION_DDOT":0},{"OBJECT_NAME":"FENGYUN 1C DEB","OBJECT_ID":"1999-025DDZ","EPOCH":"2026-03-09T19:36:45.754272","MEAN_MOTION":14.46380261,"ECCENTRICITY":0.00887636,"INCLINATION":98.852,"RA_OF_ASC_NODE":20.3154,"ARG_OF_PERICENTER":259.7165,"MEAN_ANOMALY":99.4008,"EPHEMERIS_TYPE":0,"CLASSIFICATION_TYPE":"U","NORAD_CAT_ID":33640,"ELEMENT_SET_NO":999,"REV_AT_EPOCH":93601,"BSTAR":0.000654108,"MEAN_MOTION_DOT":2.414e-5,"MEAN_MOTION_DDOT":0}]
